{"type":"FeatureCollection","name":"seoul-district-boundaries","bbox":[126.764484,37.428297,127.183795,37.701455],"source":{"title":"서울시 상권분석서비스(영역-자치구)","provider":"서울신용보증재단 / 서울특별시","url":"https://data.seoul.go.kr/dataList/OA-22161/S/1/datasetView.do","license":"공공누리 제1유형: 출처표시","sourceCrs":"EPSG:5181","convertedCrs":"EPSG:4326","simplificationToleranceMeters":25.0},"features":[{"type":"Feature","properties":{"code":"11110","name":"종로구","SIGNGU_CD":"11110","SIGNGU_NM":"종로구","centroid":[126.977319,37.594917],"areaSquareMeters":23990643},"geometry":{"type":"Polygon","coordinates":[[[126.975173,37.631343],[126.975388,37.631733],[126.97303,37.632375],[126.968236,37.63073],[126.965228,37.630768],[126.963767,37.629793],[126.96144,37.629959],[126.958814,37.629589],[126.957446,37.629159],[126.956346,37.628207],[126.955565,37.628283],[126.954015,37.627362],[126.950454,37.626418],[126.949,37.624335],[126.948898,37.623263],[126.949889,37.620901],[126.949854,37.618762],[126.950724,37.615538],[126.950732,37.613528],[126.949829,37.611656],[126.950379,37.610633],[126.950338,37.609093],[126.950565,37.60836],[126.951411,37.608017],[126.952547,37.606653],[126.952695,37.605909],[126.954042,37.605073],[126.952375,37.602476],[126.952597,37.601229],[126.953362,37.600168],[126.953061,37.598759],[126.953508,37.598579],[126.954141,37.599098],[126.955411,37.599274],[126.957714,37.598367],[126.958268,37.597789],[126.959033,37.595059],[126.958526,37.594186],[126.957508,37.593547],[126.957827,37.59146],[126.957374,37.587077],[126.957997,37.584442],[126.957573,37.582303],[126.958173,37.580985],[126.957224,37.580351],[126.957202,37.579819],[126.955678,37.579684],[126.953558,37.578749],[126.966698,37.56582],[126.969099,37.568248],[126.971176,37.568819],[126.971915,37.568289],[126.972548,37.568474],[126.972591,37.56906],[126.973205,37.569319],[126.982328,37.569045],[126.986639,37.568232],[126.990151,37.568136],[126.997958,37.568841],[127.002258,37.569616],[127.01588,37.569762],[127.017364,37.570089],[127.020755,37.571716],[127.023362,37.571911],[127.023138,37.578021],[127.02289,37.577821],[127.02253,37.578092],[127.022761,37.578334],[127.021403,37.578868],[127.019055,37.57797],[127.018774,37.577514],[127.018091,37.577567],[127.01767,37.578114],[127.0183,37.579033],[127.017546,37.579733],[127.016734,37.581693],[127.015406,37.581823],[127.014833,37.582331],[127.013246,37.58145],[127.011789,37.581575],[127.010589,37.580255],[127.008638,37.58046],[127.006753,37.582336],[127.007271,37.583333],[127.006626,37.586125],[127.005866,37.586972],[127.004251,37.587177],[127.003393,37.588569],[127.002216,37.589172],[127.001468,37.590149],[127.001832,37.591254],[127.000984,37.592322],[126.995354,37.592273],[126.993859,37.591424],[126.992156,37.591999],[126.991647,37.591449],[126.989222,37.591257],[126.986698,37.59275],[126.985429,37.594449],[126.983844,37.594435],[126.981488,37.595336],[126.97874,37.596635],[126.977954,37.597684],[126.97672,37.597901],[126.977682,37.60024],[126.978522,37.600992],[126.982867,37.602128],[126.983963,37.603219],[126.98574,37.603455],[126.98667,37.604024],[126.986756,37.606087],[126.986097,37.607394],[126.986822,37.608875],[126.985865,37.60947],[126.985638,37.611396],[126.986579,37.613972],[126.984536,37.615981],[126.983714,37.617759],[126.983162,37.619235],[126.983651,37.621151],[126.981848,37.624315],[126.979603,37.626371],[126.98019,37.627933],[126.979933,37.628551],[126.978419,37.62929],[126.974966,37.629026],[126.974681,37.629805],[126.975085,37.631183],[126.975173,37.631343]]]}},{"type":"Feature","properties":{"code":"11140","name":"중구","SIGNGU_CD":"11140","SIGNGU_NM":"중구","centroid":[126.995914,37.560132],"areaSquareMeters":9990317},"geometry":{"type":"Polygon","coordinates":[[[127.023102,37.571969],[127.020755,37.571716],[127.017277,37.570055],[127.015299,37.569704],[127.002258,37.569616],[126.997342,37.568766],[126.988945,37.568103],[126.982593,37.56902],[126.97579,37.569407],[126.973205,37.569319],[126.972591,37.56906],[126.972548,37.568474],[126.971915,37.568289],[126.971176,37.568819],[126.969099,37.568248],[126.966699,37.56582],[126.969463,37.561976],[126.966834,37.561273],[126.963983,37.559462],[126.961677,37.559027],[126.961572,37.55842],[126.963096,37.558216],[126.963442,37.55685],[126.961736,37.554987],[126.961973,37.554136],[126.961626,37.553366],[126.962053,37.553848],[126.962406,37.551592],[126.96571,37.554152],[126.969184,37.555663],[126.969329,37.554306],[126.969734,37.554297],[126.969947,37.554877],[126.969891,37.55401],[126.971439,37.55402],[126.97179,37.554201],[126.971468,37.55486],[126.972408,37.554877],[126.974347,37.553549],[126.976429,37.553087],[126.97655,37.555221],[126.978795,37.554087],[126.978732,37.553205],[126.980554,37.553247],[126.980848,37.553861],[126.981719,37.553859],[126.984028,37.553039],[126.985418,37.553705],[126.987564,37.551493],[126.990245,37.551281],[126.992366,37.550062],[126.994459,37.547488],[126.995224,37.547232],[126.996355,37.547449],[126.996748,37.548521],[126.998325,37.549695],[127.001684,37.55006],[127.002827,37.549633],[127.004336,37.550211],[127.004689,37.548685],[127.006132,37.548212],[127.00533,37.547349],[127.005017,37.546172],[127.007264,37.543857],[127.008984,37.544134],[127.008153,37.545026],[127.009199,37.54642],[127.009087,37.547057],[127.00967,37.547891],[127.011595,37.548488],[127.012167,37.549416],[127.01615,37.552637],[127.016962,37.553612],[127.016835,37.55445],[127.018073,37.556888],[127.020873,37.557823],[127.021902,37.557479],[127.022916,37.557862],[127.022847,37.558957],[127.022387,37.559028],[127.023389,37.56073],[127.026526,37.563391],[127.026781,37.565042],[127.023582,37.5652],[127.023137,37.571961],[127.023102,37.571969]]]}},{"type":"Feature","properties":{"code":"11170","name":"용산구","SIGNGU_CD":"11170","SIGNGU_NM":"용산구","centroid":[126.979907,37.531361],"areaSquareMeters":21892688},"geometry":{"type":"Polygon","coordinates":[[[126.969186,37.555662],[126.96571,37.554152],[126.962329,37.551539],[126.963965,37.549721],[126.963733,37.548859],[126.962024,37.54855],[126.961771,37.547602],[126.961103,37.547612],[126.961262,37.547326],[126.960052,37.546066],[126.957919,37.545496],[126.95804,37.544598],[126.957458,37.544006],[126.957425,37.543166],[126.95835,37.542759],[126.956979,37.541637],[126.955734,37.539471],[126.954095,37.538932],[126.953356,37.537493],[126.951284,37.536286],[126.948786,37.535581],[126.947482,37.535825],[126.947381,37.535223],[126.946277,37.535691],[126.945094,37.534962],[126.94459,37.533786],[126.949877,37.527029],[126.949887,37.51752],[126.954704,37.516065],[126.96191,37.513117],[126.965012,37.510804],[126.966921,37.509875],[126.975259,37.507013],[126.978189,37.506555],[126.985548,37.506543],[126.990702,37.51309],[127.006456,37.52344],[127.014896,37.532208],[127.01744,37.534004],[127.017531,37.537652],[127.015601,37.538389],[127.015005,37.538304],[127.014793,37.538813],[127.013895,37.539075],[127.013463,37.538818],[127.012612,37.539344],[127.011483,37.539026],[127.00959,37.539639],[127.0087,37.541993],[127.008984,37.544134],[127.007264,37.543857],[127.005017,37.546172],[127.00533,37.547349],[127.006132,37.548212],[127.004689,37.548685],[127.004336,37.550211],[127.002827,37.549633],[127.001684,37.55006],[126.998325,37.549695],[126.996748,37.548521],[126.996355,37.547449],[126.995224,37.547232],[126.994459,37.547488],[126.992366,37.550062],[126.990245,37.551281],[126.987564,37.551493],[126.985418,37.553705],[126.984028,37.553039],[126.981719,37.553859],[126.980848,37.553861],[126.980554,37.553247],[126.978732,37.553205],[126.978795,37.554087],[126.97655,37.555221],[126.976429,37.553087],[126.974347,37.553549],[126.972408,37.554877],[126.971491,37.554877],[126.971788,37.554196],[126.970587,37.553876],[126.969668,37.554104],[126.969947,37.554877],[126.969725,37.554293],[126.969331,37.554303],[126.969172,37.554878],[126.969186,37.555662]]]}},{"type":"Feature","properties":{"code":"11200","name":"성동구","SIGNGU_CD":"11200","SIGNGU_NM":"성동구","centroid":[127.041057,37.551025],"areaSquareMeters":16817016},"geometry":{"type":"Polygon","coordinates":[[[127.039979,37.572994],[127.038175,37.57302],[127.03813,37.572265],[127.03559,37.57198],[127.031261,37.569801],[127.027676,37.570412],[127.027288,37.570923],[127.026164,37.571244],[127.025205,37.570846],[127.023391,37.571907],[127.023582,37.5652],[127.026781,37.565042],[127.026619,37.563582],[127.025929,37.562604],[127.024528,37.561944],[127.023389,37.56073],[127.022387,37.559028],[127.022847,37.558957],[127.022916,37.557862],[127.021902,37.557479],[127.020873,37.557823],[127.018073,37.556888],[127.016835,37.55445],[127.016962,37.553612],[127.01615,37.552637],[127.012167,37.549416],[127.011595,37.548488],[127.00967,37.547891],[127.009305,37.547464],[127.009199,37.54642],[127.008153,37.545026],[127.00905,37.543976],[127.0087,37.541993],[127.009344,37.539966],[127.009946,37.539393],[127.011483,37.539026],[127.012612,37.539344],[127.013463,37.538818],[127.013895,37.539075],[127.014793,37.538813],[127.015005,37.538304],[127.015601,37.538389],[127.017531,37.537652],[127.01744,37.534004],[127.021179,37.535818],[127.040388,37.535823],[127.046044,37.53424],[127.055116,37.528661],[127.056215,37.528318],[127.073736,37.559414],[127.071058,37.560555],[127.058761,37.562314],[127.047951,37.570384],[127.041911,37.572969],[127.04002,37.572994],[127.039979,37.572994]]]}},{"type":"Feature","properties":{"code":"11215","name":"광진구","SIGNGU_CD":"11215","SIGNGU_NM":"광진구","centroid":[127.085741,37.546721],"areaSquareMeters":17049029},"geometry":{"type":"Polygon","coordinates":[[[127.101642,37.572433],[127.100851,37.573765],[127.099439,37.572738],[127.098543,37.572649],[127.096323,37.571298],[127.095838,37.571341],[127.095604,37.570609],[127.093753,37.570571],[127.090493,37.569698],[127.088396,37.570182],[127.088177,37.570846],[127.078201,37.57187],[127.076879,37.567929],[127.074092,37.564603],[127.072385,37.55996],[127.073736,37.559414],[127.056218,37.528317],[127.067456,37.524596],[127.068663,37.523871],[127.076942,37.522514],[127.079975,37.522948],[127.085633,37.524762],[127.090137,37.527007],[127.108282,37.541408],[127.111471,37.546927],[127.11155,37.550513],[127.114088,37.554085],[127.115226,37.55676],[127.113315,37.55683],[127.113863,37.558429],[127.112297,37.559],[127.11035,37.558253],[127.109529,37.558554],[127.108543,37.558245],[127.106396,37.556462],[127.104929,37.556422],[127.104276,37.557564],[127.101859,37.559494],[127.101205,37.56158],[127.102234,37.564311],[127.103455,37.57005],[127.10423,37.571388],[127.10313,37.572279],[127.101665,37.572401],[127.101642,37.572433]]]}},{"type":"Feature","properties":{"code":"11230","name":"동대문구","SIGNGU_CD":"11230","SIGNGU_NM":"동대문구","centroid":[127.054875,37.582013],"areaSquareMeters":14277373},"geometry":{"type":"Polygon","coordinates":[[[127.069369,37.609019],[127.068848,37.60901],[127.068851,37.608211],[127.06784,37.608006],[127.067883,37.606822],[127.067316,37.606781],[127.06733,37.606278],[127.066187,37.605531],[127.065483,37.605475],[127.064954,37.605862],[127.063644,37.605251],[127.062198,37.605132],[127.060167,37.603163],[127.0602,37.601728],[127.059169,37.601045],[127.05733,37.601186],[127.057377,37.601536],[127.055433,37.601021],[127.055068,37.601324],[127.053919,37.600423],[127.052099,37.600146],[127.051014,37.601174],[127.047331,37.596135],[127.046186,37.596187],[127.045502,37.596617],[127.043706,37.596271],[127.04301,37.596964],[127.041842,37.596458],[127.041387,37.595498],[127.040761,37.595288],[127.040629,37.595683],[127.038758,37.591266],[127.036222,37.59119],[127.036329,37.590141],[127.035544,37.588951],[127.032061,37.585864],[127.032304,37.585678],[127.031641,37.585365],[127.029539,37.582684],[127.023138,37.57804],[127.023362,37.571911],[127.024728,37.570987],[127.025517,37.570831],[127.026164,37.571244],[127.027288,37.570923],[127.027676,37.570412],[127.031261,37.569801],[127.03559,37.57198],[127.03813,37.572265],[127.038175,37.57302],[127.041911,37.572969],[127.047951,37.570384],[127.058761,37.562314],[127.071058,37.560555],[127.072385,37.55996],[127.074092,37.564603],[127.076879,37.567929],[127.078202,37.57187],[127.077228,37.572922],[127.076193,37.580267],[127.072161,37.584957],[127.072644,37.586512],[127.070303,37.589534],[127.070723,37.591891],[127.069433,37.595121],[127.069484,37.597244],[127.071978,37.599605],[127.072869,37.601331],[127.071533,37.604642],[127.071059,37.607619],[127.070258,37.607031],[127.069378,37.607469],[127.069374,37.608278],[127.069369,37.609019]]]}},{"type":"Feature","properties":{"code":"11260","name":"중랑구","SIGNGU_CD":"11260","SIGNGU_NM":"중랑구","centroid":[127.092889,37.59782],"areaSquareMeters":18537446},"geometry":{"type":"Polygon","coordinates":[[[127.110942,37.620861],[127.106436,37.620559],[127.104917,37.620028],[127.10367,37.619991],[127.104068,37.620118],[127.103367,37.620278],[127.101692,37.620025],[127.101675,37.619472],[127.100871,37.619404],[127.098817,37.620394],[127.096651,37.619562],[127.096195,37.61902],[127.094448,37.619006],[127.093216,37.618003],[127.088707,37.62024],[127.088231,37.619875],[127.086073,37.620292],[127.081434,37.619159],[127.080075,37.618276],[127.080075,37.618724],[127.075031,37.61691],[127.071385,37.616403],[127.07003,37.615419],[127.071136,37.614806],[127.071709,37.613514],[127.071078,37.607322],[127.071533,37.604642],[127.072871,37.601261],[127.071978,37.599605],[127.069484,37.597244],[127.069433,37.595121],[127.070723,37.591891],[127.070303,37.589534],[127.072644,37.586512],[127.072161,37.584957],[127.076193,37.580267],[127.077228,37.572922],[127.078202,37.57187],[127.088177,37.570846],[127.088396,37.570182],[127.090493,37.569698],[127.093753,37.570571],[127.095604,37.570609],[127.095838,37.571341],[127.096323,37.571298],[127.098543,37.572649],[127.099439,37.572738],[127.100949,37.573825],[127.101144,37.576071],[127.103025,37.578907],[127.102894,37.579907],[127.10344,37.580595],[127.108967,37.583379],[127.110675,37.589156],[127.113337,37.59326],[127.116664,37.594017],[127.116877,37.595497],[127.114022,37.599966],[127.118047,37.604602],[127.118477,37.607613],[127.116698,37.608849],[127.116788,37.610282],[127.117483,37.611771],[127.116676,37.614673],[127.117147,37.617888],[127.115873,37.618583],[127.116203,37.618933],[127.115715,37.619634],[127.115021,37.619538],[127.111305,37.620692],[127.110942,37.620861]]]}},{"type":"Feature","properties":{"code":"11290","name":"성북구","SIGNGU_CD":"11290","SIGNGU_NM":"성북구","centroid":[127.01752,37.605703],"areaSquareMeters":24578799},"geometry":{"type":"Polygon","coordinates":[[[126.983867,37.636445],[126.982516,37.635786],[126.981514,37.634721],[126.980607,37.634816],[126.979652,37.634207],[126.977332,37.633583],[126.975369,37.631698],[126.974681,37.629805],[126.974966,37.629026],[126.978419,37.62929],[126.979933,37.628551],[126.98019,37.627933],[126.979603,37.626371],[126.981848,37.624315],[126.983651,37.621151],[126.983162,37.619235],[126.983714,37.617759],[126.984536,37.615981],[126.986579,37.613972],[126.985638,37.611396],[126.985865,37.60947],[126.986822,37.608875],[126.986097,37.607394],[126.986756,37.606087],[126.986782,37.604471],[126.98574,37.603455],[126.983963,37.603219],[126.982867,37.602128],[126.978522,37.600992],[126.977682,37.60024],[126.97672,37.597901],[126.977954,37.597684],[126.97874,37.596635],[126.981488,37.595336],[126.983844,37.594435],[126.985429,37.594449],[126.986698,37.59275],[126.989222,37.591257],[126.991647,37.591449],[126.992156,37.591999],[126.993859,37.591424],[126.995354,37.592273],[127.000984,37.592322],[127.001832,37.591254],[127.001468,37.590149],[127.002216,37.589172],[127.003393,37.588569],[127.004251,37.587177],[127.005866,37.586972],[127.006626,37.586125],[127.007271,37.583333],[127.006753,37.582336],[127.008638,37.58046],[127.010589,37.580255],[127.011789,37.581575],[127.013246,37.58145],[127.014833,37.582331],[127.015406,37.581823],[127.016386,37.581938],[127.0183,37.579033],[127.01767,37.578114],[127.018091,37.577567],[127.018774,37.577514],[127.019055,37.57797],[127.021524,37.578877],[127.022761,37.578334],[127.02253,37.578092],[127.022978,37.577827],[127.023304,37.578428],[127.029539,37.582684],[127.031641,37.585365],[127.032304,37.585678],[127.032061,37.585864],[127.035544,37.588951],[127.036329,37.590141],[127.036222,37.59119],[127.038758,37.591266],[127.040629,37.595683],[127.040761,37.595288],[127.041387,37.595498],[127.041842,37.596458],[127.04301,37.596964],[127.043706,37.596271],[127.045502,37.596617],[127.046186,37.596187],[127.047331,37.596135],[127.049069,37.598137],[127.049747,37.599762],[127.050412,37.600095],[127.050342,37.600611],[127.051199,37.601224],[127.052099,37.600146],[127.053919,37.600423],[127.055068,37.601324],[127.055433,37.601021],[127.057377,37.601536],[127.05733,37.601186],[127.059169,37.601045],[127.0602,37.601728],[127.060167,37.603163],[127.062198,37.605132],[127.063644,37.605251],[127.064954,37.605862],[127.065483,37.605475],[127.066187,37.605531],[127.06733,37.606278],[127.067316,37.606781],[127.067883,37.606822],[127.06784,37.608006],[127.068851,37.608211],[127.068848,37.60901],[127.069369,37.609019],[127.069378,37.607469],[127.070379,37.607032],[127.071061,37.607629],[127.071709,37.613514],[127.071136,37.614806],[127.069712,37.615724],[127.063247,37.614269],[127.061754,37.614493],[127.060666,37.615663],[127.057421,37.617481],[127.054425,37.619779],[127.05224,37.622239],[127.04974,37.624274],[127.046529,37.622323],[127.043949,37.618644],[127.040558,37.616107],[127.040041,37.616247],[127.039556,37.615106],[127.037882,37.613766],[127.037323,37.612809],[127.030248,37.608973],[127.030177,37.612357],[127.026433,37.612694],[127.025745,37.612139],[127.024564,37.612143],[127.022196,37.611372],[127.022035,37.612293],[127.020398,37.612596],[127.019227,37.613795],[127.018514,37.613834],[127.017537,37.614616],[127.016524,37.61494],[127.014509,37.61472],[127.011832,37.616324],[127.010952,37.616286],[127.010102,37.616854],[127.009932,37.617766],[127.008497,37.618622],[127.007192,37.620508],[127.007888,37.624027],[127.004897,37.623824],[127.003897,37.624226],[127.002981,37.625284],[126.999273,37.626202],[126.995393,37.63025],[126.993694,37.631474],[126.991367,37.632614],[126.989931,37.632797],[126.989458,37.633998],[126.988571,37.633777],[126.987409,37.634966],[126.983959,37.636438],[126.983867,37.636445]]]}},{"type":"Feature","properties":{"code":"11305","name":"강북구","SIGNGU_CD":"11305","SIGNGU_NM":"강북구","centroid":[127.011195,37.643464],"areaSquareMeters":23638414},"geometry":{"type":"Polygon","coordinates":[[[127.004567,37.68508],[127.00224,37.683593],[127.001687,37.684344],[126.997311,37.683466],[126.996737,37.682389],[126.994732,37.681244],[126.994076,37.680324],[126.992198,37.679627],[126.993247,37.677661],[126.993125,37.675832],[126.993981,37.674907],[126.993543,37.674103],[126.994074,37.672761],[126.993802,37.670197],[126.994357,37.669567],[126.993561,37.667804],[126.994017,37.666783],[126.992225,37.665232],[126.989997,37.664499],[126.988268,37.664391],[126.987277,37.6606],[126.986544,37.659485],[126.98301,37.657004],[126.982857,37.65645],[126.981194,37.656488],[126.979658,37.656039],[126.981048,37.652713],[126.981677,37.652316],[126.982496,37.65054],[126.983937,37.64961],[126.983981,37.648182],[126.984603,37.647613],[126.984929,37.646067],[126.985718,37.646093],[126.983247,37.643684],[126.984257,37.641645],[126.985224,37.641636],[126.986133,37.640428],[126.985533,37.639701],[126.984856,37.636815],[126.984202,37.63634],[126.987409,37.634966],[126.988571,37.633777],[126.989458,37.633998],[126.989931,37.632797],[126.991367,37.632614],[126.993694,37.631474],[126.995393,37.63025],[126.999273,37.626202],[127.002981,37.625284],[127.003897,37.624226],[127.004897,37.623824],[127.007888,37.624027],[127.007192,37.620508],[127.008497,37.618622],[127.009932,37.617766],[127.010102,37.616854],[127.010952,37.616286],[127.011832,37.616324],[127.014509,37.61472],[127.016524,37.61494],[127.017537,37.614616],[127.018514,37.613834],[127.019227,37.613795],[127.020398,37.612596],[127.022035,37.612293],[127.022196,37.611372],[127.024564,37.612143],[127.025745,37.612139],[127.026433,37.612694],[127.030177,37.612357],[127.030248,37.608973],[127.037323,37.612809],[127.037882,37.613766],[127.039556,37.615106],[127.040041,37.616247],[127.040558,37.616107],[127.043949,37.618644],[127.046529,37.622323],[127.04974,37.624274],[127.047121,37.627536],[127.044406,37.628938],[127.04257,37.630572],[127.039762,37.632197],[127.038142,37.634258],[127.037819,37.636039],[127.034566,37.637783],[127.03242,37.641833],[127.025892,37.64572],[127.024685,37.647342],[127.022663,37.647844],[127.021447,37.648876],[127.020206,37.649085],[127.017312,37.648653],[127.015096,37.649282],[127.014272,37.650399],[127.012898,37.650747],[127.012451,37.65216],[127.014799,37.661361],[127.014527,37.661994],[127.015882,37.661324],[127.016887,37.662172],[127.015321,37.663633],[127.015806,37.664943],[127.015467,37.666077],[127.016607,37.667881],[127.018397,37.668884],[127.018696,37.670859],[127.017926,37.670753],[127.016219,37.673924],[127.015098,37.674141],[127.013883,37.675239],[127.013293,37.67783],[127.012122,37.679092],[127.009365,37.679581],[127.008418,37.683235],[127.008664,37.68445],[127.004591,37.685074],[127.004567,37.68508]]]}},{"type":"Feature","properties":{"code":"11320","name":"도봉구","SIGNGU_CD":"11320","SIGNGU_NM":"도봉구","centroid":[127.032383,37.669102],"areaSquareMeters":20705585},"geometry":{"type":"Polygon","coordinates":[[[127.019604,37.701037],[127.015415,37.701455],[127.013879,37.698801],[127.012125,37.697378],[127.009666,37.6967],[127.009712,37.693363],[127.007621,37.691618],[127.008293,37.690115],[127.008418,37.683235],[127.009365,37.679581],[127.012122,37.679092],[127.013293,37.67783],[127.013883,37.675239],[127.015098,37.674141],[127.016219,37.673924],[127.017926,37.670753],[127.018696,37.670859],[127.018397,37.668884],[127.015759,37.666995],[127.015346,37.665553],[127.015806,37.664943],[127.015321,37.663633],[127.016887,37.662172],[127.015882,37.661324],[127.014527,37.661994],[127.014799,37.661361],[127.012513,37.65185],[127.013139,37.650475],[127.014272,37.650399],[127.015096,37.649282],[127.017784,37.648627],[127.021157,37.648993],[127.022663,37.647844],[127.024685,37.647342],[127.025892,37.64572],[127.031946,37.642173],[127.033193,37.640811],[127.034566,37.637783],[127.037819,37.636039],[127.038142,37.634258],[127.039762,37.632197],[127.042526,37.630421],[127.042645,37.630905],[127.041658,37.631467],[127.044323,37.634092],[127.045356,37.63747],[127.046025,37.637899],[127.046694,37.639368],[127.046594,37.641118],[127.0478,37.641208],[127.049064,37.642145],[127.049758,37.643513],[127.050703,37.643804],[127.050482,37.644825],[127.051356,37.644816],[127.052853,37.641807],[127.054731,37.640135],[127.055778,37.640625],[127.055128,37.641322],[127.054994,37.642355],[127.055826,37.647049],[127.053948,37.650553],[127.054006,37.655301],[127.053407,37.657518],[127.051786,37.659949],[127.051635,37.663979],[127.051165,37.663979],[127.048907,37.667585],[127.048191,37.670497],[127.048735,37.674792],[127.050921,37.680094],[127.051223,37.681998],[127.052134,37.682947],[127.052202,37.684972],[127.051798,37.685815],[127.050643,37.686508],[127.04982,37.687977],[127.049966,37.69087],[127.048632,37.694063],[127.046755,37.692717],[127.044904,37.692405],[127.044817,37.692936],[127.043037,37.693622],[127.043398,37.694402],[127.043073,37.695231],[127.041109,37.6953],[127.039997,37.694684],[127.039914,37.694081],[127.03895,37.693982],[127.038498,37.693286],[127.037528,37.693221],[127.035777,37.692374],[127.032414,37.691839],[127.032026,37.69295],[127.031026,37.693075],[127.029729,37.696272],[127.029286,37.699292],[127.027687,37.700937],[127.027022,37.701115],[127.026898,37.700251],[127.025315,37.699581],[127.023389,37.700071],[127.022148,37.699721],[127.019827,37.701017],[127.019604,37.701037]]]}},{"type":"Feature","properties":{"code":"11350","name":"노원구","SIGNGU_CD":"11350","SIGNGU_NM":"노원구","centroid":[127.075052,37.652504],"areaSquareMeters":35589181},"geometry":{"type":"Polygon","coordinates":[[[127.083843,37.694269],[127.081105,37.696137],[127.078196,37.695987],[127.074907,37.69522],[127.072658,37.6938],[127.069823,37.693981],[127.069151,37.69369],[127.067827,37.694773],[127.066308,37.694442],[127.063386,37.694922],[127.062732,37.694676],[127.062209,37.692805],[127.05966,37.690332],[127.05839,37.689686],[127.055179,37.689205],[127.051804,37.687067],[127.052356,37.684332],[127.052134,37.682947],[127.051223,37.681998],[127.050921,37.680094],[127.048844,37.675152],[127.048191,37.670497],[127.048907,37.667585],[127.051165,37.663979],[127.051635,37.663979],[127.051786,37.659949],[127.053407,37.657518],[127.054006,37.655301],[127.053948,37.650553],[127.055826,37.647049],[127.054994,37.642355],[127.055128,37.641322],[127.055778,37.640625],[127.054731,37.640135],[127.052853,37.641807],[127.051356,37.644816],[127.050482,37.644825],[127.050703,37.643804],[127.049758,37.643513],[127.049064,37.642145],[127.0478,37.641208],[127.046594,37.641118],[127.046694,37.639368],[127.046025,37.637899],[127.045356,37.63747],[127.044323,37.634092],[127.041658,37.631467],[127.042645,37.630905],[127.042515,37.630614],[127.044406,37.628938],[127.047604,37.627124],[127.049663,37.624337],[127.05224,37.622239],[127.054425,37.619779],[127.057421,37.617481],[127.060699,37.615638],[127.061064,37.61488],[127.062309,37.614316],[127.069712,37.615724],[127.070091,37.615406],[127.071385,37.616403],[127.075031,37.61691],[127.080075,37.618724],[127.080075,37.618276],[127.081434,37.619159],[127.086073,37.620292],[127.088231,37.619875],[127.088707,37.62024],[127.093216,37.618003],[127.094448,37.619006],[127.096195,37.61902],[127.096651,37.619562],[127.098817,37.620394],[127.100871,37.619404],[127.101675,37.619472],[127.101692,37.620025],[127.103812,37.620288],[127.104068,37.620118],[127.10367,37.619991],[127.104917,37.620028],[127.105662,37.620416],[127.104909,37.621567],[127.104066,37.621653],[127.105906,37.627595],[127.110825,37.630782],[127.112203,37.632643],[127.111602,37.633849],[127.112407,37.634251],[127.112483,37.636489],[127.110549,37.639126],[127.111135,37.639944],[127.111991,37.640009],[127.112217,37.64037],[127.111345,37.641497],[127.111155,37.642564],[127.109898,37.642488],[127.109289,37.642859],[127.107692,37.644967],[127.106576,37.645377],[127.104025,37.645622],[127.098908,37.644034],[127.097559,37.643965],[127.09457,37.644571],[127.094475,37.64585],[127.093632,37.646626],[127.093834,37.647322],[127.093069,37.647838],[127.092466,37.64971],[127.093266,37.650618],[127.094008,37.652729],[127.093066,37.653783],[127.091891,37.657435],[127.091132,37.658243],[127.091207,37.659335],[127.092174,37.660793],[127.094142,37.663299],[127.095411,37.66389],[127.09468,37.664921],[127.094581,37.666172],[127.094979,37.6676],[127.096237,37.668829],[127.096447,37.669689],[127.095749,37.67062],[127.095751,37.672673],[127.094615,37.673536],[127.093854,37.676659],[127.092614,37.677475],[127.091942,37.678693],[127.092795,37.680045],[127.092919,37.681552],[127.096423,37.685637],[127.096081,37.687907],[127.095585,37.688395],[127.095996,37.689071],[127.095097,37.689385],[127.094289,37.689132],[127.093037,37.689966],[127.090552,37.68957],[127.086531,37.689912],[127.085177,37.69039],[127.083905,37.691782],[127.083853,37.693867],[127.083843,37.694269]]]}},{"type":"Feature","properties":{"code":"11380","name":"은평구","SIGNGU_CD":"11380","SIGNGU_NM":"은평구","centroid":[126.92702,37.619205],"areaSquareMeters":29795672},"geometry":{"type":"Polygon","coordinates":[[[126.947943,37.658396],[126.947565,37.659215],[126.9421,37.657722],[126.939666,37.656241],[126.937163,37.652316],[126.935706,37.651203],[126.931901,37.650231],[126.929699,37.650048],[126.924792,37.646534],[126.923395,37.645944],[126.913721,37.644756],[126.911946,37.645366],[126.909727,37.646878],[126.904802,37.649201],[126.907705,37.64629],[126.91228,37.644315],[126.910092,37.638509],[126.91121,37.635906],[126.910854,37.635317],[126.909122,37.634333],[126.906202,37.63322],[126.906757,37.632736],[126.907294,37.630867],[126.908382,37.629994],[126.908802,37.629088],[126.908611,37.626266],[126.906627,37.624496],[126.907143,37.623313],[126.907117,37.621941],[126.905558,37.620623],[126.905231,37.619075],[126.903361,37.618839],[126.903126,37.617304],[126.901823,37.615754],[126.901734,37.614069],[126.900304,37.611191],[126.902108,37.603742],[126.900153,37.603116],[126.899982,37.60204],[126.901323,37.599367],[126.901012,37.597337],[126.90183,37.595141],[126.900355,37.594211],[126.898962,37.592678],[126.899696,37.591362],[126.89975,37.589938],[126.898082,37.589539],[126.897962,37.58909],[126.896859,37.588567],[126.893328,37.589067],[126.891444,37.588465],[126.889579,37.589132],[126.887159,37.588533],[126.885824,37.58953],[126.885467,37.591105],[126.887338,37.59392],[126.885243,37.593893],[126.883575,37.591853],[126.882031,37.590818],[126.888887,37.58465],[126.902084,37.576005],[126.902635,37.57639],[126.901866,37.576587],[126.911914,37.585823],[126.912844,37.587222],[126.915698,37.58598],[126.91531,37.585415],[126.916267,37.585657],[126.915572,37.584735],[126.915937,37.583095],[126.918971,37.583403],[126.920859,37.582939],[126.92176,37.583458],[126.921851,37.584696],[126.923641,37.58616],[126.923821,37.587095],[126.926314,37.587266],[126.928009,37.588385],[126.927621,37.589389],[126.927947,37.589924],[126.927762,37.591571],[126.930231,37.594535],[126.932795,37.596298],[126.934538,37.596615],[126.937542,37.597868],[126.938724,37.597504],[126.940883,37.598697],[126.941403,37.600657],[126.939846,37.601867],[126.939972,37.603095],[126.941237,37.603149],[126.942138,37.604958],[126.943672,37.60506],[126.943708,37.60624],[126.948164,37.608634],[126.949058,37.609816],[126.950377,37.610625],[126.949829,37.611656],[126.950732,37.613528],[126.950724,37.615538],[126.949854,37.618762],[126.949889,37.620901],[126.948898,37.623263],[126.949,37.624335],[126.950454,37.626418],[126.954015,37.627362],[126.955179,37.628162],[126.956346,37.628207],[126.957446,37.629159],[126.959822,37.629761],[126.963329,37.633245],[126.962541,37.635819],[126.961604,37.637117],[126.961603,37.637989],[126.960862,37.638755],[126.959971,37.641462],[126.959268,37.642133],[126.959027,37.646783],[126.957839,37.648048],[126.957108,37.652837],[126.954352,37.654595],[126.954194,37.655211],[126.951376,37.65495],[126.949791,37.655912],[126.949203,37.65677],[126.947882,37.657126],[126.947939,37.65838],[126.947943,37.658396]]]}},{"type":"Feature","properties":{"code":"11410","name":"서대문구","SIGNGU_CD":"11410","SIGNGU_NM":"서대문구","centroid":[126.939061,37.577794],"areaSquareMeters":17687798},"geometry":{"type":"Polygon","coordinates":[[[126.953174,37.603526],[126.954042,37.605073],[126.953076,37.605502],[126.951411,37.608017],[126.950565,37.60836],[126.950363,37.610623],[126.949644,37.610267],[126.948164,37.608634],[126.943708,37.60624],[126.943672,37.60506],[126.942138,37.604958],[126.941237,37.603149],[126.939972,37.603095],[126.939846,37.601867],[126.941403,37.600657],[126.940883,37.598697],[126.938724,37.597504],[126.937542,37.597868],[126.934538,37.596615],[126.932795,37.596298],[126.930231,37.594535],[126.927762,37.591571],[126.927947,37.589924],[126.927621,37.589389],[126.928009,37.588385],[126.926314,37.587266],[126.923821,37.587095],[126.923641,37.58616],[126.921851,37.584696],[126.92176,37.583458],[126.920859,37.582939],[126.918971,37.583403],[126.915937,37.583095],[126.915572,37.584735],[126.916267,37.585657],[126.91531,37.585415],[126.915698,37.58598],[126.912844,37.587222],[126.911914,37.585823],[126.90183,37.576546],[126.902635,37.57639],[126.90208,37.576006],[126.909087,37.571283],[126.918438,37.567116],[126.923581,37.565999],[126.926014,37.565105],[126.928282,37.563332],[126.926721,37.560967],[126.926594,37.558849],[126.936857,37.555099],[126.941372,37.556548],[126.956175,37.557407],[126.959133,37.557243],[126.961646,37.55909],[126.963983,37.559462],[126.966834,37.561273],[126.969463,37.561976],[126.966699,37.56582],[126.953558,37.578749],[126.955678,37.579684],[126.957202,37.579819],[126.957224,37.580351],[126.958173,37.580985],[126.957573,37.582303],[126.957997,37.584442],[126.957374,37.587077],[126.957827,37.59146],[126.957508,37.593547],[126.958526,37.594186],[126.959033,37.595059],[126.958268,37.597789],[126.957714,37.598367],[126.955411,37.599274],[126.954141,37.599098],[126.953508,37.598579],[126.953061,37.598759],[126.953362,37.600168],[126.952597,37.601229],[126.952375,37.602476],[126.952886,37.603136],[126.953174,37.603526]]]}},{"type":"Feature","properties":{"code":"11440","name":"마포구","SIGNGU_CD":"11440","SIGNGU_NM":"마포구","centroid":[126.908268,37.559321],"areaSquareMeters":23862255},"geometry":{"type":"Polygon","coordinates":[[[126.889361,37.584347],[126.886156,37.586799],[126.882056,37.590792],[126.880349,37.589506],[126.879133,37.586772],[126.877542,37.586247],[126.877193,37.584936],[126.876538,37.58444],[126.877331,37.584048],[126.876625,37.581376],[126.877418,37.58064],[126.877632,37.579748],[126.877076,37.578903],[126.876259,37.578963],[126.87626,37.578185],[126.873915,37.578281],[126.868379,37.577521],[126.864941,37.577472],[126.863731,37.576992],[126.863412,37.577165],[126.863416,37.576869],[126.859294,37.575241],[126.859286,37.574915],[126.853629,37.573799],[126.853632,37.571791],[126.85502,37.570258],[126.858662,37.567777],[126.866291,37.563053],[126.873043,37.560049],[126.888257,37.552214],[126.894684,37.549393],[126.898943,37.548008],[126.904831,37.541417],[126.922414,37.54143],[126.923076,37.540455],[126.9271,37.539035],[126.927665,37.539076],[126.930338,37.541363],[126.932898,37.540531],[126.938558,37.537835],[126.94459,37.533786],[126.945094,37.534962],[126.946277,37.535691],[126.947381,37.535223],[126.947482,37.535825],[126.948786,37.535581],[126.951284,37.536286],[126.953356,37.537493],[126.954095,37.538932],[126.955734,37.539471],[126.956979,37.541637],[126.95816,37.542428],[126.95835,37.542759],[126.9574,37.543387],[126.95804,37.544598],[126.957919,37.545496],[126.960052,37.546066],[126.961262,37.547326],[126.961103,37.547612],[126.961771,37.547602],[126.962024,37.54855],[126.963733,37.548859],[126.963965,37.549719],[126.962329,37.551539],[126.962053,37.553848],[126.961626,37.553366],[126.961973,37.554136],[126.961736,37.554987],[126.963442,37.55685],[126.963096,37.558216],[126.961572,37.55842],[126.961646,37.55909],[126.959133,37.557243],[126.956175,37.557407],[126.941372,37.556548],[126.936857,37.555099],[126.926594,37.558849],[126.926721,37.560967],[126.928282,37.563332],[126.926014,37.565105],[126.923581,37.565999],[126.918438,37.567116],[126.908767,37.571447],[126.889451,37.584289],[126.889361,37.584347]]]}},{"type":"Feature","properties":{"code":"11470","name":"양천구","SIGNGU_CD":"11470","SIGNGU_NM":"양천구","centroid":[126.855367,37.524742],"areaSquareMeters":17462673},"geometry":{"type":"Polygon","coordinates":[[[126.866734,37.550071],[126.864203,37.55115],[126.86212,37.544484],[126.863777,37.540711],[126.86344,37.536104],[126.863977,37.529786],[126.848879,37.527898],[126.840484,37.526481],[126.834418,37.536452],[126.835111,37.536729],[126.83516,37.537532],[126.833734,37.539842],[126.833102,37.541849],[126.829985,37.541656],[126.830249,37.542628],[126.829754,37.544288],[126.830474,37.54578],[126.829763,37.547736],[126.827625,37.547694],[126.825679,37.54423],[126.82607,37.542956],[126.825427,37.541707],[126.822054,37.540661],[126.821591,37.539712],[126.822434,37.536543],[126.821868,37.534903],[126.822703,37.533755],[126.823553,37.533763],[126.823431,37.532616],[126.825313,37.529959],[126.82707,37.529708],[126.828214,37.529029],[126.827939,37.528003],[126.828837,37.526515],[126.826507,37.524932],[126.825163,37.523055],[126.825661,37.522235],[126.825617,37.52008],[126.824496,37.517715],[126.823105,37.51622],[126.823401,37.514953],[126.824256,37.514468],[126.824408,37.513177],[126.823857,37.510875],[126.824345,37.510226],[126.823904,37.509095],[126.824694,37.508321],[126.826274,37.508768],[126.826922,37.508491],[126.828155,37.508775],[126.830649,37.508167],[126.831018,37.507829],[126.830615,37.506313],[126.831649,37.505082],[126.835304,37.502816],[126.837502,37.503242],[126.838402,37.504353],[126.83958,37.504458],[126.840762,37.506016],[126.84245,37.505449],[126.84468,37.505755],[126.844359,37.506537],[126.844835,37.507401],[126.84727,37.509524],[126.848732,37.50882],[126.850113,37.510092],[126.851382,37.510056],[126.852907,37.510643],[126.85518,37.509674],[126.855687,37.508968],[126.858344,37.509868],[126.860316,37.506609],[126.862691,37.507404],[126.864097,37.508355],[126.862637,37.506791],[126.863525,37.505051],[126.864648,37.504868],[126.864829,37.505504],[126.865465,37.505583],[126.869153,37.504868],[126.870275,37.505834],[126.871457,37.505069],[126.871868,37.504128],[126.87358,37.50356],[126.874706,37.506629],[126.874212,37.507178],[126.875041,37.507713],[126.874766,37.508303],[126.873906,37.508676],[126.87385,37.509162],[126.874323,37.509495],[126.875436,37.509461],[126.875179,37.510526],[126.875522,37.511078],[126.876518,37.510627],[126.876845,37.510849],[126.875199,37.51179],[126.874672,37.510687],[126.874035,37.510771],[126.873997,37.511297],[126.8751,37.512418],[126.875598,37.512167],[126.876104,37.51241],[126.876651,37.513671],[126.877912,37.513328],[126.877515,37.514673],[126.877775,37.515555],[126.877325,37.516035],[126.878957,37.516931],[126.878581,37.517627],[126.879546,37.517656],[126.87874,37.517942],[126.878196,37.518779],[126.878351,37.519486],[126.879429,37.520505],[126.878754,37.525355],[126.880941,37.525911],[126.880802,37.527631],[126.883346,37.527281],[126.884177,37.528668],[126.88715,37.530182],[126.888467,37.53043],[126.889548,37.530014],[126.890648,37.531613],[126.888564,37.532123],[126.888659,37.532808],[126.89,37.533655],[126.889918,37.534793],[126.88652,37.539362],[126.885086,37.543305],[126.884245,37.543565],[126.884092,37.544637],[126.880664,37.548196],[126.879923,37.54814],[126.880256,37.547736],[126.877959,37.547099],[126.873077,37.547004],[126.870808,37.547656],[126.866834,37.55001],[126.866734,37.550071]]]}},{"type":"Feature","properties":{"code":"11500","name":"강서구","SIGNGU_CD":"11500","SIGNGU_NM":"강서구","centroid":[126.822813,37.561233],"areaSquareMeters":41456740},"geometry":{"type":"Polygon","coordinates":[[[126.808443,37.60106],[126.802581,37.605033],[126.799941,37.602545],[126.799966,37.601496],[126.799218,37.601119],[126.798535,37.600087],[126.798053,37.600208],[126.797536,37.597786],[126.797082,37.597739],[126.797608,37.594882],[126.800501,37.592413],[126.80005,37.592028],[126.799612,37.592443],[126.798993,37.592426],[126.798801,37.591323],[126.80052,37.590309],[126.801227,37.589349],[126.800773,37.589041],[126.80094,37.588166],[126.800498,37.587794],[126.798768,37.588073],[126.797227,37.585386],[126.796294,37.584903],[126.797097,37.584273],[126.795722,37.583121],[126.79554,37.585155],[126.794933,37.585203],[126.794698,37.582622],[126.794224,37.584072],[126.793441,37.58452],[126.793912,37.582961],[126.79331,37.580247],[126.792846,37.580168],[126.793219,37.576894],[126.792737,37.576839],[126.792374,37.579728],[126.791349,37.581414],[126.790728,37.580612],[126.790595,37.577784],[126.790016,37.57735],[126.789343,37.577723],[126.78847,37.576798],[126.789202,37.575581],[126.788046,37.576169],[126.787614,37.575584],[126.782408,37.573606],[126.7819,37.571808],[126.781375,37.57135],[126.78263,37.570547],[126.781487,37.570182],[126.780521,37.570464],[126.781898,37.569236],[126.780474,37.568287],[126.780318,37.567504],[126.779171,37.568317],[126.779003,37.567155],[126.777808,37.566994],[126.776723,37.566051],[126.776334,37.567092],[126.775402,37.567318],[126.775531,37.568261],[126.774762,37.567708],[126.775132,37.565879],[126.775575,37.565592],[126.775343,37.565344],[126.775943,37.565206],[126.777102,37.563719],[126.776632,37.562374],[126.77751,37.562282],[126.777842,37.559933],[126.775759,37.561941],[126.775459,37.561433],[126.774679,37.561319],[126.774933,37.560902],[126.774165,37.560159],[126.774289,37.559756],[126.773591,37.560057],[126.773192,37.559286],[126.772742,37.559409],[126.772446,37.558723],[126.771771,37.558632],[126.773184,37.557528],[126.772431,37.557013],[126.769867,37.55723],[126.76735,37.556619],[126.766284,37.556917],[126.766725,37.556316],[126.764484,37.555369],[126.766337,37.554871],[126.766365,37.553763],[126.767639,37.554089],[126.767288,37.553684],[126.767714,37.552833],[126.767465,37.551951],[126.770267,37.551086],[126.769922,37.550175],[126.771494,37.548356],[126.775293,37.548971],[126.776744,37.548204],[126.777563,37.546712],[126.781836,37.546068],[126.782038,37.546327],[126.783395,37.546008],[126.787261,37.546076],[126.789385,37.544463],[126.791819,37.543746],[126.79181,37.541902],[126.794944,37.541372],[126.794376,37.540234],[126.793263,37.539703],[126.793936,37.539424],[126.794425,37.535829],[126.796042,37.53675],[126.79835,37.537252],[126.798254,37.537705],[126.799462,37.537725],[126.799146,37.538891],[126.799427,37.539019],[126.798736,37.539399],[126.798862,37.540293],[126.800815,37.540812],[126.800782,37.541043],[126.800333,37.540856],[126.800546,37.541469],[126.799654,37.541388],[126.80185,37.542716],[126.803493,37.543091],[126.807394,37.543579],[126.810595,37.541496],[126.813318,37.540641],[126.822067,37.540672],[126.825427,37.541707],[126.82607,37.542956],[126.825679,37.54423],[126.826959,37.545966],[126.827535,37.547595],[126.829763,37.547736],[126.830474,37.54578],[126.829754,37.544288],[126.830249,37.542628],[126.829985,37.541656],[126.833102,37.541849],[126.833734,37.539842],[126.83516,37.537532],[126.835111,37.536729],[126.834418,37.536452],[126.840484,37.526481],[126.848879,37.527898],[126.863977,37.529786],[126.86344,37.536104],[126.863777,37.540711],[126.86211,37.544355],[126.864203,37.55115],[126.865809,37.550609],[126.870808,37.547656],[126.872644,37.547072],[126.877959,37.547099],[126.880256,37.547736],[126.879923,37.54814],[126.880664,37.548196],[126.878076,37.551699],[126.878033,37.553031],[126.87924,37.553027],[126.879237,37.554747],[126.880464,37.55627],[126.863825,37.56449],[126.856071,37.569443],[126.853522,37.571896],[126.84324,37.578879],[126.83176,37.585843],[126.827812,37.587485],[126.819303,37.59285],[126.817526,37.59533],[126.809021,37.600643],[126.808443,37.60106]]]}},{"type":"Feature","properties":{"code":"11530","name":"구로구","SIGNGU_CD":"11530","SIGNGU_NM":"구로구","centroid":[126.856319,37.494406],"areaSquareMeters":20097922},"geometry":{"type":"Polygon","coordinates":[[[126.879357,37.517926],[126.879422,37.517528],[126.878478,37.517531],[126.878957,37.516931],[126.878489,37.516406],[126.877325,37.516035],[126.877775,37.515555],[126.877515,37.514673],[126.877912,37.513328],[126.876651,37.513671],[126.876104,37.51241],[126.875598,37.512167],[126.8751,37.512418],[126.873997,37.511297],[126.874035,37.510771],[126.874672,37.510687],[126.875199,37.51179],[126.876845,37.510849],[126.876518,37.510627],[126.875522,37.511078],[126.875179,37.510526],[126.875436,37.509461],[126.874323,37.509495],[126.87385,37.509162],[126.873906,37.508676],[126.874766,37.508303],[126.875041,37.507713],[126.874212,37.507178],[126.874706,37.506629],[126.873571,37.503556],[126.871868,37.504128],[126.871457,37.505069],[126.870275,37.505834],[126.869153,37.504868],[126.865465,37.505583],[126.864829,37.505504],[126.864648,37.504868],[126.863525,37.505051],[126.862637,37.506791],[126.864097,37.508355],[126.862691,37.507404],[126.860316,37.506609],[126.858344,37.509868],[126.855687,37.508968],[126.85518,37.509674],[126.852907,37.510643],[126.851382,37.510056],[126.850113,37.510092],[126.848732,37.50882],[126.84727,37.509524],[126.844835,37.507401],[126.844359,37.506537],[126.84468,37.505755],[126.84245,37.505449],[126.840762,37.506016],[126.83958,37.504458],[126.838402,37.504353],[126.837502,37.503242],[126.835304,37.502816],[126.831649,37.505082],[126.830615,37.506313],[126.831018,37.507829],[126.830649,37.508167],[126.828155,37.508775],[126.826922,37.508491],[126.826274,37.508768],[126.822223,37.507687],[126.82255,37.505685],[126.821827,37.504538],[126.821564,37.502156],[126.819415,37.500789],[126.81964,37.49921],[126.818912,37.498749],[126.818209,37.498856],[126.816097,37.497644],[126.814283,37.498268],[126.814037,37.497351],[126.813012,37.4964],[126.814353,37.494425],[126.814575,37.493193],[126.815488,37.493201],[126.815873,37.492626],[126.817889,37.491535],[126.820976,37.490793],[126.820794,37.490527],[126.822762,37.489979],[126.823011,37.48815],[126.823587,37.487742],[126.822391,37.486723],[126.81929,37.485475],[126.819391,37.483309],[126.819986,37.481644],[126.818256,37.478164],[126.81721,37.478135],[126.814965,37.47586],[126.814629,37.474649],[126.815473,37.47405],[126.816562,37.473994],[126.817076,37.473288],[126.81764,37.473188],[126.818633,37.474081],[126.818321,37.475299],[126.819413,37.475179],[126.819056,37.475937],[126.819423,37.476328],[126.821779,37.476203],[126.821718,37.47522],[126.822107,37.475748],[126.823951,37.476472],[126.82415,37.47616],[126.829204,37.476195],[126.829622,37.476895],[126.831748,37.477651],[126.83348,37.477156],[126.834872,37.475751],[126.83464,37.474363],[126.835725,37.474384],[126.838335,37.475414],[126.840825,37.474658],[126.842953,37.474925],[126.844955,37.473472],[126.845361,37.473812],[126.845987,37.480696],[126.846517,37.481599],[126.848134,37.482097],[126.850702,37.481526],[126.8527,37.481819],[126.852959,37.482478],[126.853864,37.482838],[126.855165,37.485171],[126.857971,37.486085],[126.861768,37.490326],[126.862811,37.490828],[126.864555,37.491021],[126.866602,37.492892],[126.86737,37.493074],[126.867781,37.494076],[126.867036,37.493955],[126.866787,37.494243],[126.868229,37.495128],[126.870017,37.493657],[126.869369,37.492717],[126.870022,37.492262],[126.869298,37.491852],[126.869993,37.491024],[126.86968,37.490431],[126.870233,37.490113],[126.870228,37.489596],[126.871342,37.489834],[126.871568,37.490761],[126.872255,37.490602],[126.87413,37.491338],[126.87484,37.490745],[126.874454,37.490427],[126.874651,37.489899],[126.87411,37.489777],[126.873753,37.490476],[126.872839,37.490014],[126.872414,37.489331],[126.872748,37.488431],[126.87327,37.488298],[126.874344,37.48886],[126.875189,37.488507],[126.876043,37.489047],[126.87679,37.488571],[126.875974,37.486911],[126.875139,37.486792],[126.874556,37.485367],[126.877655,37.486067],[126.878458,37.486672],[126.882724,37.48475],[126.886155,37.48235],[126.88773,37.480441],[126.888785,37.47979],[126.895871,37.478339],[126.896212,37.478672],[126.89899,37.479149],[126.89974,37.480746],[126.903197,37.485002],[126.900155,37.485908],[126.898144,37.486935],[126.896121,37.489343],[126.895315,37.492361],[126.89571,37.492581],[126.894996,37.493651],[126.893624,37.499586],[126.892762,37.500833],[126.893137,37.502678],[126.892693,37.503314],[126.893308,37.503965],[126.893169,37.5046],[126.893977,37.505012],[126.891864,37.510083],[126.890646,37.510639],[126.889633,37.511812],[126.88973,37.512273],[126.888403,37.512345],[126.88752,37.513226],[126.884433,37.513849],[126.884338,37.51439],[126.882727,37.515172],[126.882727,37.515779],[126.879528,37.517817],[126.879357,37.517926]]]}},{"type":"Feature","properties":{"code":"11545","name":"금천구","SIGNGU_CD":"11545","SIGNGU_NM":"금천구","centroid":[126.900827,37.460574],"areaSquareMeters":13021079},"geometry":{"type":"Polygon","coordinates":[[[126.879247,37.486319],[126.878458,37.486672],[126.877655,37.486067],[126.874219,37.485188],[126.873137,37.486152],[126.872445,37.48611],[126.871763,37.485269],[126.872208,37.484433],[126.873297,37.484181],[126.872787,37.483489],[126.872744,37.482425],[126.873379,37.482434],[126.875986,37.477104],[126.878011,37.473828],[126.881593,37.469417],[126.881631,37.468459],[126.884618,37.466012],[126.884345,37.465457],[126.882873,37.464961],[126.882746,37.464391],[126.884317,37.462724],[126.885141,37.462468],[126.887122,37.462904],[126.888876,37.460947],[126.886128,37.4609],[126.885367,37.460056],[126.885418,37.459417],[126.886337,37.458957],[126.885869,37.457588],[126.886265,37.456363],[126.887242,37.455504],[126.888017,37.455579],[126.889203,37.454724],[126.889642,37.452315],[126.891964,37.452304],[126.892588,37.451949],[126.893255,37.452763],[126.893983,37.452717],[126.89605,37.448043],[126.895004,37.448223],[126.89465,37.446698],[126.895782,37.445633],[126.897269,37.445437],[126.899926,37.439556],[126.898805,37.43935],[126.898978,37.438702],[126.902751,37.435862],[126.902988,37.434068],[126.906084,37.433995],[126.907254,37.433518],[126.909396,37.43386],[126.911333,37.436171],[126.911203,37.437201],[126.912309,37.438579],[126.916125,37.440053],[126.919264,37.439852],[126.920275,37.440466],[126.921169,37.442546],[126.922763,37.444041],[126.923253,37.445773],[126.92828,37.449353],[126.928366,37.451012],[126.92729,37.451008],[126.926263,37.45254],[126.925424,37.45301],[126.924779,37.452844],[126.923083,37.454529],[126.922187,37.456624],[126.918334,37.456909],[126.916916,37.457509],[126.914981,37.457313],[126.91403,37.457905],[126.914412,37.461613],[126.912902,37.46401],[126.913724,37.465469],[126.912552,37.465762],[126.911041,37.468084],[126.909963,37.468774],[126.910253,37.46925],[126.908197,37.472683],[126.910745,37.47362],[126.911359,37.474507],[126.911834,37.477821],[126.910471,37.478355],[126.90946,37.478027],[126.908651,37.47908],[126.908999,37.480078],[126.909935,37.480252],[126.909786,37.480766],[126.896212,37.478672],[126.896212,37.478339],[126.889882,37.47939],[126.88773,37.480441],[126.886155,37.48235],[126.882724,37.48475],[126.879392,37.486254],[126.879247,37.486319]]]}},{"type":"Feature","properties":{"code":"11560","name":"영등포구","SIGNGU_CD":"11560","SIGNGU_NM":"영등포구","centroid":[126.91018,37.52231],"areaSquareMeters":24523722},"geometry":{"type":"Polygon","coordinates":[[[126.880467,37.556273],[126.879237,37.554747],[126.87924,37.553027],[126.878033,37.553031],[126.878076,37.551699],[126.880356,37.548457],[126.884092,37.544637],[126.884245,37.543565],[126.885086,37.543305],[126.88652,37.539362],[126.889895,37.534837],[126.89,37.533655],[126.888659,37.532808],[126.888564,37.532123],[126.890648,37.531613],[126.889548,37.530014],[126.888467,37.53043],[126.88715,37.530182],[126.884177,37.528668],[126.883346,37.527281],[126.881179,37.527781],[126.880677,37.527538],[126.881173,37.526545],[126.880941,37.525911],[126.879285,37.525715],[126.878609,37.525069],[126.879437,37.520598],[126.878351,37.519486],[126.878196,37.518779],[126.87874,37.517942],[126.879302,37.517961],[126.882727,37.515779],[126.882727,37.515172],[126.884338,37.51439],[126.884433,37.513849],[126.88752,37.513226],[126.888403,37.512345],[126.88973,37.512273],[126.889633,37.511812],[126.890646,37.510639],[126.891864,37.510083],[126.893977,37.505012],[126.893169,37.5046],[126.893308,37.503965],[126.892693,37.503314],[126.893137,37.502678],[126.892762,37.500833],[126.893624,37.499586],[126.894996,37.493651],[126.89571,37.492581],[126.895315,37.492361],[126.896121,37.489343],[126.898651,37.486642],[126.903198,37.485001],[126.907521,37.490002],[126.911959,37.496042],[126.919815,37.497799],[126.920294,37.500033],[126.92539,37.512529],[126.92679,37.512801],[126.926971,37.51322],[126.926867,37.515544],[126.939283,37.516077],[126.949887,37.517508],[126.949877,37.527029],[126.944218,37.534239],[126.938558,37.537835],[126.932898,37.540531],[126.930338,37.541363],[126.927665,37.539076],[126.9271,37.539035],[126.923076,37.540455],[126.922414,37.54143],[126.904831,37.541417],[126.898943,37.548008],[126.894684,37.549393],[126.888257,37.552214],[126.88131,37.555847],[126.880467,37.556273]]]}},{"type":"Feature","properties":{"code":"11590","name":"동작구","SIGNGU_CD":"11590","SIGNGU_NM":"동작구","centroid":[126.951655,37.498881],"areaSquareMeters":16382215},"geometry":{"type":"Polygon","coordinates":[[[126.949638,37.517589],[126.939283,37.516077],[126.926867,37.515544],[126.926971,37.51322],[126.92679,37.512801],[126.92539,37.512529],[126.920294,37.500033],[126.919815,37.497799],[126.911959,37.496042],[126.907521,37.490002],[126.903199,37.485003],[126.906098,37.484961],[126.911274,37.486268],[126.91356,37.488017],[126.917858,37.489921],[126.917856,37.490256],[126.921015,37.490637],[126.924151,37.489978],[126.924573,37.490938],[126.925209,37.49085],[126.925774,37.492517],[126.925448,37.492603],[126.927479,37.495015],[126.928253,37.494942],[126.932415,37.492873],[126.934218,37.493157],[126.937259,37.491911],[126.938304,37.492392],[126.939255,37.492197],[126.940388,37.492972],[126.941589,37.492202],[126.943392,37.492241],[126.944512,37.492499],[126.944542,37.493145],[126.946964,37.494126],[126.94755,37.493761],[126.948793,37.493856],[126.948823,37.493179],[126.951697,37.492205],[126.953727,37.490642],[126.955421,37.491454],[126.957125,37.491754],[126.9576,37.492355],[126.958684,37.49277],[126.959364,37.493803],[126.960289,37.493744],[126.961378,37.492874],[126.960868,37.490175],[126.961967,37.488628],[126.961675,37.485978],[126.961987,37.485177],[126.961069,37.483558],[126.963939,37.480994],[126.964795,37.479512],[126.966326,37.47896],[126.968897,37.476568],[126.97029,37.476499],[126.970523,37.475376],[126.978423,37.47665],[126.981696,37.47653],[126.98293,37.496994],[126.985387,37.499859],[126.980595,37.502667],[126.979849,37.504173],[126.980397,37.50459],[126.980407,37.506536],[126.975259,37.507013],[126.966921,37.509875],[126.965012,37.510804],[126.96191,37.513117],[126.954704,37.516065],[126.949691,37.517572],[126.949638,37.517589]]]}},{"type":"Feature","properties":{"code":"11620","name":"관악구","SIGNGU_CD":"11620","SIGNGU_NM":"관악구","centroid":[126.945334,37.467379],"areaSquareMeters":29578708},"geometry":{"type":"Polygon","coordinates":[[[126.92778,37.495049],[126.925569,37.492791],[126.925209,37.49085],[126.924573,37.490938],[126.924151,37.489978],[126.921015,37.490637],[126.917856,37.490256],[126.917858,37.489921],[126.91356,37.488017],[126.911274,37.486268],[126.906098,37.484961],[126.903199,37.485003],[126.899696,37.480684],[126.898943,37.47894],[126.909786,37.480766],[126.909935,37.480252],[126.908999,37.480078],[126.908651,37.47908],[126.90946,37.478027],[126.910471,37.478355],[126.911834,37.477821],[126.911359,37.474507],[126.910745,37.47362],[126.908197,37.472683],[126.910253,37.46925],[126.909963,37.468774],[126.911041,37.468084],[126.912552,37.465762],[126.913724,37.465469],[126.912902,37.46401],[126.914412,37.461613],[126.91403,37.457905],[126.914981,37.457313],[126.916916,37.457509],[126.918334,37.456909],[126.922187,37.456624],[126.923083,37.454529],[126.924779,37.452844],[126.925424,37.45301],[126.926263,37.45254],[126.92729,37.451008],[126.928366,37.451012],[126.928399,37.450212],[126.930174,37.448366],[126.930554,37.445468],[126.934895,37.443212],[126.937354,37.440872],[126.937864,37.440198],[126.937273,37.438632],[126.938622,37.436029],[126.94022,37.435712],[126.941424,37.437404],[126.945091,37.437088],[126.948363,37.438713],[126.949284,37.43825],[126.950925,37.438734],[126.951158,37.438444],[126.952411,37.43919],[126.955109,37.438692],[126.958966,37.43907],[126.960056,37.440401],[126.962943,37.44028],[126.963803,37.440787],[126.963784,37.441287],[126.964634,37.44204],[126.963934,37.445215],[126.96429,37.446267],[126.967663,37.448381],[126.970569,37.449453],[126.971753,37.451737],[126.972844,37.452382],[126.97458,37.454413],[126.977757,37.455199],[126.978477,37.455735],[126.982398,37.455891],[126.981904,37.456936],[126.986613,37.457212],[126.988636,37.458166],[126.987547,37.460148],[126.988344,37.463999],[126.987935,37.465939],[126.987105,37.467228],[126.987303,37.467614],[126.985532,37.469046],[126.986075,37.468963],[126.98452,37.469801],[126.983214,37.471575],[126.982172,37.473719],[126.981696,37.47653],[126.978423,37.47665],[126.970523,37.475376],[126.97029,37.476499],[126.968897,37.476568],[126.966326,37.47896],[126.964427,37.479819],[126.963939,37.480994],[126.961069,37.483558],[126.961987,37.485177],[126.961675,37.485978],[126.961967,37.488628],[126.960868,37.490175],[126.961378,37.492874],[126.960289,37.493744],[126.959364,37.493803],[126.958684,37.49277],[126.9576,37.492355],[126.957125,37.491754],[126.955421,37.491454],[126.953727,37.490642],[126.951697,37.492205],[126.948823,37.493179],[126.948793,37.493856],[126.94755,37.493761],[126.946964,37.494126],[126.944542,37.493145],[126.944512,37.492499],[126.943392,37.492241],[126.941589,37.492202],[126.940388,37.492972],[126.939255,37.492197],[126.938304,37.492392],[126.937259,37.491911],[126.934218,37.493157],[126.932415,37.492873],[126.931339,37.493226],[126.927913,37.495078],[126.92778,37.495049]]]}},{"type":"Feature","properties":{"code":"11650","name":"서초구","SIGNGU_CD":"11650","SIGNGU_NM":"서초구","centroid":[127.031247,37.473298],"areaSquareMeters":46920555},"geometry":{"type":"Polygon","coordinates":[[[127.008063,37.525069],[127.006456,37.52344],[127.000994,37.519631],[126.990702,37.51309],[126.985548,37.506543],[126.980407,37.506536],[126.980397,37.50459],[126.979849,37.504173],[126.980595,37.502667],[126.985387,37.499859],[126.98293,37.496994],[126.981844,37.475092],[126.983214,37.471575],[126.98452,37.469801],[126.986075,37.468963],[126.985532,37.469046],[126.987303,37.467614],[126.987105,37.467228],[126.987935,37.465939],[126.988344,37.463999],[126.987547,37.460148],[126.988646,37.458145],[126.991698,37.460519],[126.992655,37.460344],[126.993354,37.461496],[126.996769,37.461873],[126.997371,37.463687],[126.996619,37.464779],[126.996231,37.466608],[126.997171,37.467214],[127.002735,37.467125],[127.003675,37.46772],[127.004905,37.465843],[127.00447,37.464073],[127.007041,37.460215],[127.008214,37.4591],[127.008711,37.457765],[127.010584,37.456169],[127.010823,37.455423],[127.012373,37.455549],[127.01451,37.454861],[127.015575,37.454916],[127.017545,37.456135],[127.019692,37.455787],[127.021695,37.456315],[127.022793,37.457251],[127.025995,37.457817],[127.026572,37.459642],[127.028362,37.459894],[127.028043,37.461245],[127.029606,37.463275],[127.029527,37.465374],[127.031196,37.465626],[127.033141,37.465017],[127.034672,37.464089],[127.033469,37.460975],[127.033899,37.460832],[127.033716,37.460282],[127.034924,37.460175],[127.034968,37.457989],[127.036741,37.456444],[127.037128,37.455208],[127.036267,37.454262],[127.035588,37.454088],[127.034755,37.452617],[127.035776,37.452196],[127.037744,37.449419],[127.037159,37.44801],[127.037532,37.447361],[127.037254,37.446448],[127.038206,37.445859],[127.037483,37.443267],[127.036431,37.441833],[127.035172,37.440942],[127.035574,37.439004],[127.037068,37.438275],[127.040053,37.438237],[127.04109,37.437769],[127.041443,37.43711],[127.044186,37.435055],[127.044626,37.434069],[127.046312,37.433447],[127.047225,37.43204],[127.047369,37.430702],[127.049865,37.43031],[127.052325,37.428297],[127.053684,37.428975],[127.05807,37.430011],[127.059961,37.429569],[127.061145,37.429985],[127.063316,37.429752],[127.064386,37.429114],[127.065682,37.428985],[127.0667,37.430129],[127.06827,37.430679],[127.068964,37.430432],[127.069874,37.430972],[127.070952,37.430213],[127.071207,37.430818],[127.070571,37.432417],[127.07152,37.434117],[127.071272,37.435601],[127.073024,37.436407],[127.073843,37.437408],[127.072008,37.438857],[127.071626,37.441524],[127.072138,37.442263],[127.076011,37.442139],[127.077078,37.441651],[127.077748,37.441863],[127.080172,37.441051],[127.08125,37.441119],[127.082432,37.441579],[127.083862,37.443921],[127.085703,37.444417],[127.086421,37.444262],[127.087855,37.444894],[127.088821,37.449749],[127.089543,37.450166],[127.08962,37.450887],[127.090303,37.451267],[127.091129,37.452956],[127.092726,37.453634],[127.09354,37.455888],[127.095214,37.456321],[127.09544,37.45756],[127.094845,37.458516],[127.095011,37.459797],[127.095718,37.460695],[127.095657,37.461015],[127.093089,37.46128],[127.09191,37.462306],[127.092042,37.464918],[127.091618,37.465719],[127.09043,37.467148],[127.089038,37.468241],[127.088128,37.468489],[127.086604,37.47085],[127.085017,37.4713],[127.084136,37.473],[127.084461,37.475144],[127.084939,37.475661],[127.083239,37.475703],[127.077963,37.474854],[127.076924,37.475243],[127.075367,37.473496],[127.073854,37.472983],[127.072689,37.471995],[127.07041,37.471093],[127.068591,37.471062],[127.065113,37.469371],[127.063866,37.469034],[127.062423,37.46936],[127.060919,37.468918],[127.05911,37.469159],[127.058727,37.468852],[127.057186,37.468944],[127.056118,37.468373],[127.055056,37.468797],[127.054238,37.468055],[127.053313,37.468128],[127.050799,37.467246],[127.05105,37.469365],[127.048669,37.47006],[127.051182,37.471789],[127.04519,37.477355],[127.044005,37.479942],[127.043544,37.480168],[127.043889,37.480561],[127.04175,37.485437],[127.034087,37.484369],[127.020515,37.512799],[127.017822,37.521812],[127.015231,37.524845],[127.013187,37.522583],[127.008577,37.525596],[127.008063,37.525069]]]}},{"type":"Feature","properties":{"code":"11680","name":"강남구","SIGNGU_CD":"11680","SIGNGU_NM":"강남구","centroid":[127.062977,37.496657],"areaSquareMeters":39488793},"geometry":{"type":"Polygon","coordinates":[[[127.040211,37.535823],[127.021179,37.535818],[127.017742,37.534251],[127.014896,37.532208],[127.008577,37.525596],[127.013187,37.522583],[127.015231,37.524845],[127.017822,37.521812],[127.020515,37.512799],[127.034087,37.484369],[127.04175,37.485437],[127.043889,37.480561],[127.043544,37.480168],[127.044005,37.479942],[127.04519,37.477355],[127.051182,37.471789],[127.048669,37.47006],[127.05105,37.469365],[127.050799,37.467246],[127.053313,37.468128],[127.054238,37.468055],[127.055056,37.468797],[127.056118,37.468373],[127.057186,37.468944],[127.058727,37.468852],[127.05911,37.469159],[127.060919,37.468918],[127.062423,37.46936],[127.063866,37.469034],[127.065113,37.469371],[127.068591,37.471062],[127.07041,37.471093],[127.072689,37.471995],[127.073854,37.472983],[127.075367,37.473496],[127.076924,37.475243],[127.077963,37.474854],[127.083239,37.475703],[127.084939,37.475661],[127.084461,37.475144],[127.084136,37.473],[127.085017,37.4713],[127.086604,37.47085],[127.088128,37.468489],[127.089038,37.468241],[127.09043,37.467148],[127.091618,37.465719],[127.092042,37.464918],[127.09191,37.462306],[127.093089,37.46128],[127.095657,37.461015],[127.094845,37.458516],[127.09544,37.45756],[127.095223,37.456394],[127.098893,37.456116],[127.099739,37.457355],[127.10106,37.45799],[127.101381,37.458972],[127.102634,37.459867],[127.103443,37.459751],[127.103942,37.460051],[127.10478,37.46116],[127.104341,37.462174],[127.106672,37.462411],[127.11182,37.461644],[127.113334,37.461087],[127.112763,37.46053],[127.113955,37.459517],[127.115496,37.458698],[127.116896,37.458641],[127.116989,37.461485],[127.117475,37.462201],[127.120746,37.463892],[127.121859,37.465138],[127.124207,37.46652],[127.107007,37.490295],[127.103305,37.492819],[127.099763,37.494509],[127.097403,37.49519],[127.097798,37.49548],[127.094794,37.496683],[127.076987,37.502072],[127.069815,37.502739],[127.067668,37.519869],[127.067479,37.524582],[127.055116,37.528661],[127.046044,37.53424],[127.040388,37.535823],[127.040211,37.535823]]]}},{"type":"Feature","properties":{"code":"11710","name":"송파구","SIGNGU_CD":"11710","SIGNGU_NM":"송파구","centroid":[127.115292,37.505619],"areaSquareMeters":33853024},"geometry":{"type":"Polygon","coordinates":[[[127.116495,37.541968],[127.113105,37.543171],[127.10924,37.543167],[127.108282,37.541408],[127.090137,37.527007],[127.085633,37.524762],[127.079975,37.522948],[127.076954,37.522514],[127.068663,37.523871],[127.067479,37.524582],[127.067668,37.519869],[127.069815,37.502739],[127.076987,37.502072],[127.094794,37.496683],[127.097798,37.49548],[127.097403,37.49519],[127.099763,37.494509],[127.103512,37.492705],[127.107007,37.490295],[127.12421,37.466517],[127.125199,37.467833],[127.124878,37.469597],[127.126666,37.468625],[127.130545,37.467739],[127.1328,37.468394],[127.1324,37.469055],[127.132794,37.469119],[127.132786,37.469599],[127.131983,37.469798],[127.132824,37.471201],[127.132856,37.474626],[127.143527,37.47393],[127.14437,37.477331],[127.147145,37.477222],[127.147525,37.482014],[127.148683,37.484043],[127.149095,37.483883],[127.15043,37.485249],[127.158514,37.489666],[127.157282,37.48995],[127.158327,37.490663],[127.158651,37.492427],[127.159757,37.493641],[127.159779,37.496824],[127.160567,37.497555],[127.161431,37.500022],[127.160504,37.501095],[127.159397,37.501363],[127.158866,37.50239],[127.157729,37.503179],[127.156438,37.501859],[127.153231,37.502679],[127.152844,37.503055],[127.152109,37.50297],[127.150205,37.504742],[127.147695,37.503212],[127.145952,37.503227],[127.144547,37.504216],[127.141048,37.505407],[127.140813,37.505979],[127.141517,37.506708],[127.139935,37.508524],[127.140343,37.510225],[127.141217,37.510823],[127.14144,37.5124],[127.143528,37.512657],[127.14343,37.51388],[127.140614,37.515589],[127.144604,37.515606],[127.145439,37.516065],[127.145329,37.516607],[127.138264,37.519372],[127.119093,37.52796],[127.120605,37.530629],[127.123442,37.538646],[127.118949,37.541125],[127.116525,37.54196],[127.116495,37.541968]]]}},{"type":"Feature","properties":{"code":"11740","name":"강동구","SIGNGU_CD":"11740","SIGNGU_NM":"강동구","centroid":[127.147014,37.550454],"areaSquareMeters":24557023},"geometry":{"type":"Polygon","coordinates":[[[127.176689,37.579069],[127.177155,37.5812],[127.171837,37.579262],[127.166747,37.578976],[127.14895,37.568434],[127.137666,37.568424],[127.134266,37.567954],[127.12861,37.56616],[127.122956,37.56349],[127.117339,37.559464],[127.115646,37.5577],[127.114088,37.554085],[127.11155,37.550513],[127.111471,37.546927],[127.10924,37.543167],[127.113105,37.543171],[127.118949,37.541125],[127.123442,37.538646],[127.120605,37.530629],[127.119093,37.52796],[127.138264,37.519372],[127.143827,37.517026],[127.145092,37.516835],[127.144786,37.519624],[127.145666,37.521932],[127.147797,37.522149],[127.149476,37.525021],[127.149455,37.525751],[127.153164,37.529109],[127.153377,37.531331],[127.153934,37.53192],[127.153567,37.533665],[127.154021,37.534514],[127.156033,37.537342],[127.156789,37.537658],[127.157651,37.53927],[127.16031,37.541626],[127.163163,37.544991],[127.166894,37.544273],[127.166978,37.545202],[127.169764,37.544805],[127.172107,37.545534],[127.174138,37.545712],[127.174315,37.545297],[127.175717,37.545208],[127.175981,37.545637],[127.176638,37.545336],[127.176902,37.545823],[127.179911,37.546574],[127.181693,37.546445],[127.182202,37.545725],[127.183539,37.54517],[127.183795,37.545574],[127.182725,37.546704],[127.182933,37.551753],[127.18134,37.552965],[127.181995,37.560992],[127.179665,37.565279],[127.179216,37.568918],[127.177819,37.572058],[127.175683,37.574899],[127.175415,37.578299],[127.176621,37.579009],[127.176689,37.579069]]]}}]}